C/2007 F1 (LONEOS),h,10/24.3262/2007,116.4755,172.5704,153.5368,1.000117,0.400739,2000,10.0,4.0
# From MPC 66464
C/2007 G1 (LINEAR),h,11/19.6698/2008,88.5830,79.0223,223.9119,1.000233,2.641574,2000,5.5,4.0
# From MPC 60280
C/2007 H2 (Skiff),e,52.1895,203.7717,319.3018,49.64605,0.0028176,0.97158988,0.0000,02/17.0525/2007,2000,g 17.5,4.0
# From MPC 62581
C/2007 JA21 (LINEAR),h,11/06.0447/2006,89.7750,65.4421,93.8624,1.000135,5.400702,2000,8.0,4.0
# From MPC 63135
C/2007 K1 (Lemmon),e,108.5768,294.6422,52.1368,453.7323,0.0001020,0.97959229,0.0000,05/09.3298/2007,2000,g  6.0,4.0
# From MPC 82314
P/2007 K2 (Gibbs),e,7.6377,188.6478,347.4779,7.261831,0.0503657,0.68343920,244.8438,09/27.0/2020,2000,g 14.0,4.0
# From MPC 82314
C/2007 K3 (Siding Spring),e,16.4018,263.1887,23.3904,2908,0.0000063,0.99930200,0.0000,04/27.0901/2008,2000,g  9.5,4.0
# From MPC 60281
C/2007 K4 (Gibbs),h,05/01.1698/2007,98.6821,68.3919,162.4439,1.000524,3.551544,2000,10.5,4.0
# From MPC 60281
C/2007 K5 (Lovejoy),e,64.9637,193.8803,255.5442,48.36480,0.0029303,0.97600652,0.0000,04/24.1395/2007,2000,g 14.0,4.0
# From MPC 60465
C/2007 K6 (McNaught),e,105.2540,297.8696,337.0273,194.2941,0.0003639,0.98229043,0.0000,06/27.5804/2007,2000,g 11.0,4.0
# From MPC 87475
C/2007 M1 (McNaught),e,139.8208,326.8380,52.8212,1415,0.0000185,0.99469611,0.0000,08/07.5518/2008,2000,g  6.0,4.0
# From MPC112388
C/2007 M2 (Catalina),e,80.7826,357.2528,220.7650,1780,0.0000131,0.99800545,0.0000,12/10.4311/2008,2000,g  8.0,4.0
# From MPC 75514
C/2007 M3 (LINEAR),e,161.7699,41.7140,125.8984,166.1869,0.0004601,0.97894952,0.0000,08/29.5500/2007,2000,g  9.5,4.0
# From MPC 73461
C/2007 N3 (Lulin),e,178.3727,338.5338,136.9104,2213,0.0000095,0.99944999,0.0000,01/13.8001/2009,2000,g  6.5,4.0
# From MPC 60465
C/2007 O1 (LINEAR),h,06/08.0240/2007,24.4653,115.9697,159.4701,1.002216,2.862219,2000,10.0,4.0
# From MPC 60665
C/2007 P1 (McNaught),p,04/03.862/2007,118.855,89.602,0.51424,186.747,2000,13.0,4.0
# From MPC 60665
C/2007 Q1 (Garradd),p,12/10.844/2006,81.871,281.837,2.97763,5.932,2000,10.5,4.0
# From MPC 60925
P/2007 Q2 (Gilmore),e,10.2015,172.1629,162.7786,5.657608,0.0732411,0.67041872,355.5336,09/27.0/2020,2000,g 16.0,4.0
# From MPC 78183
C/2007 Q3 (Siding Spring),h,10/03.9251/2009,65.3846,149.5462,2.2042,1.000199,2.271106,2000,4.5,4.0
# From MPEC 2020-SI8
P/2007 R2 (Gibbs),e,1.2134,11.4769,352.3542,3.573170,0.1459229,0.54187938,1.6497,09/27.0/2020,2000,g 17.0,4.0
# From MPC 75708
P/2007 R4 (Garradd),e,20.2292,87.2218,282.6898,5.923349,0.0683680,0.66991654,330.0611,09/27.0/2020,2000,g 14.5,4.0
# From MPC 73462
P/2007 S1 (Zhao),e,5.9629,141.3845,245.7773,3.811902,0.1324316,0.33968040,261.7745,09/27.0/2020,2000,g 13.0,4.0
# From MPC 82314
C/2007 S2 (Lemmon),e,16.8334,296.0889,210.5917,12.54977,0.0221692,0.55394589,97.8053,09/27.0/2020,2000,g  6.5,4.0
# From MPC 62270
C/2007 T1 (McNaught),e,118.0116,111.7527,233.9298,3559,0.0000046,0.99972695,0.0000,12/13.8648/2007,2000,g 10.5,4.0
# From MPC 61994
P/2007 T2 (Kowalski),e,9.7437,3.3758,359.6351,3.047274,0.1852835,0.78517542,147.5467,09/27.0/2020,2000,g 18.5,4.0
# From MPC 65935
C/2007 T5 (Gibbs),e,45.4619,109.8211,34.5394,46.28677,0.0031298,0.91188882,14.1374,09/27.0/2020,2000,g  8.0,4.0
# From MPC 98557
C/2007 U1 (LINEAR),e,157.7752,50.3620,1.0739,6087,0.0000021,0.99945624,0.0000,08/04.2583/2008,2000,g  9.0,4.0
# From MPC 75708
P/2007 VQ11 (Catalina),e,12.3201,163.8155,277.6774,5.426735,0.0779644,0.50332188,0.6993,09/27.0/2020,2000,g 12.0,4.0
# From MPC 81467
C/2007 VO53 (Spacewatch),e,86.9388,59.7265,75.1569,6100,0.0000021,0.99920202,0.0000,04/18.7965/2010,2000,g  7.0,4.0
# From MPC 63599
C/2007 W1 (Boattini),e,9.9273,333.9179,306.9377,1820,0.0000127,0.99954098,0.0000,06/29.9932/2008,2000,g  9.5,4.0
# From MPC 63376
C/2007 W3 (LINEAR),e,78.6298,72.8035,112.7816,4087,0.0000038,0.99956053,0.0000,05/29.5508/2008,2000,g 12.0,4.0
# From MPC 62271
C/2007 Y1 (LINEAR),e,109.9553,133.2696,357.1603,4547,0.0000032,0.99926560,0.0000,03/19.7040/2008,2000,g 10.5,4.0
# From MPC 62271
C/2007 Y2 (McNaught),e,98.2844,303.3163,257.7166,831.8047,0.0000411,0.99493565,0.0000,04/05.8769/2008,2000,g  9.0,4.0
# From MPC 65935
C/2008 A1 (McNaught),e,82.9565,277.6308,348.4747,16720,0.0000005,0.99993567,0.0000,09/30.2288/2008,2000,g  6.5,4.0
# From MPC 62582
C/2008 C1 (Chen-Gao),e,61.3934,307.9319,180.9442,2670,0.0000071,0.99952285,0.0000,04/12.4687/2008,2000,g 10.0,4.0
# From MPC 75708
P/2008 CL94 (Lemmon),e,8.3477,33.3350,80.5653,6.160172,0.0644636,0.12019022,336.7668,09/27.0/2020,2000,g  8.0,4.0
# From MPC 62271
C/2008 D1 (STEREO),p,02/17.76/2008,140.28,99.09,0.0052,15.82,2000,9.0,4.0
# From MPC 62271
C/2008 D2 (STEREO),p,02/20.51/2008,143.49,90.43,0.0051,11.17,2000,9.0,4.0
# From MPC 62271
C/2008 D3 (STEREO),p,02/22.398/2008,143.994,78.905,0.00528,358.785,2000,9.0,4.0
# From MPC 62271
C/2008 D4 (STEREO),p,02/21.79/2008,145.98,77.24,0.0049,15.67,2000,9.0,4.0
# From MPC112389
C/2008 E1 (Catalina),e,34.8546,188.9427,270.4767,10.79842,0.0277756,0.54855838,123.3712,09/27.0/2020,2000,g  7.0,4.0
# From MPC 68392
C/2008 E3 (Garradd),e,105.2777,105.6400,218.1555,1800,0.0000129,0.99692107,0.0000,08/02.1974/2008,2000,g  6.0,4.0
# From MPC 63136
C/2008 E5 (STEREO),p,03/06.81/2008,144.84,89.02,0.0051,7.48,2000,9.0,4.0
# From MPC 63136
C/2008 E6 (STEREO),p,03/16.22/2008,143.75,74.07,0.0051,356.83,2000,9.0,4.0
# From MPC 65645
C/2008 E10 (STEREO),p,03/09.03/2008,140.63,92.91,0.0053,18.85,2000,9.0,4.0
# From MPC 88324
C/2008 FK75 (Lemmon-Siding Spring),h,10/03.8212/2010,61.1839,218.2195,80.4263,1.001723,4.498207,2000,5.0,4.0
# From MPC 82314
C/2008 G1 (Gibbs),e,72.9027,215.8721,63.7241,303.2898,0.0001866,0.98686910,0.0000,01/16.6228/2009,2000,g  9.5,4.0
# From MPC 63137
C/2008 H1 (LINEAR),e,75.4798,34.6347,96.1421,50.47218,0.0027487,0.94478609,12.6053,09/27.0/2020,2000,g 10.5,4.0
# From MPC 65054
C/2008 J1 (Boattini),e,62.0025,273.6675,67.8742,159.9636,0.0004872,0.98932172,0.0000,07/16.2842/2008,2000,g 10.0,4.0
# From MPC 63138
C/2008 J4 (McNaught),p,06/19.509/2008,87.502,93.393,0.44795,289.248,2000,15.0,4.0
# From MPC 63376
C/2008 J5 (Garradd),e,93.3761,286.7414,313.2617,68.65586,0.0017326,0.97131741,0.0000,03/29.4682/2008,2000,g 12.0,4.0
# From MPC 82314
C/2008 J6 (Hill),h,04/14.6952/2008,45.2622,298.0713,10.6157,1.001290,1.986340,2000,10.5,4.0
# From MPC 75709
P/2008 L2 (Hill),e,25.8547,218.0046,141.2073,6.028687,0.0665840,0.61295783,296.3244,09/27.0/2020,2000,g 12.5,4.0
# From MPC 63600
C/2008 L3 (Hill),e,100.2036,24.1895,101.7961,252.8520,0.0002451,0.99204731,0.0000,04/22.3613/2008,2000,g 14.0,4.0
# From MPC112389
C/2008 N1 (Holmes),e,115.5591,357.6677,101.0381,933.6889,0.0000345,0.99699332,0.0000,09/21.9818/2009,2000,g  9.0,4.0
# From MPC 64114
P/2008 O3 (Boattini),e,32.2421,47.6022,341.0831,8.223858,0.0417918,0.69492922,188.5146,09/27.0/2020,2000,g 13.0,4.0
# From MPC103843
C/2008 P1 (Garradd),e,64.4696,357.6186,11.6743,2719,0.0000070,0.99857520,0.0000,07/21.7350/2009,2000,g  7.0,4.0
# From MPC 65935
C/2008 Q1 (Maticic),e,118.6412,9.4355,104.6735,586.0172,0.0000695,0.99490527,0.0000,12/25.2282/2008,2000,g 10.0,4.0
# From MPC 80896
C/2008 Q3 (Garradd),e,140.7003,219.7048,340.9707,2422,0.0000083,0.99924940,0.0000,06/22.6157/2009,2000,g 10.0,4.0
# From MPC 75709
P/2008 QP20 (LINEAR-Hill),e,7.5202,322.0890,75.6739,3.550821,0.1473028,0.49250875,291.9310,09/27.0/2020,2000,g 15.5,4.0
# From MPC 64115
C/2008 R3 (LINEAR),e,43.3140,270.8209,83.8577,18.25165,0.0126401,0.89637940,54.6650,09/27.0/2020,2000,g 13.0,4.0
# From MPC 95207
C/2008 S3 (Boattini),e,162.7036,55.0478,39.9371,5891,0.0000022,0.99864109,0.0000,06/01.4377/2011,2000,g  4.0,4.0
# From MPC 66921
C/2008 T2 (Cardinal),h,06/10.3689/2009,55.8762,309.5546,216.0719,1.000005,1.215248,2000,6.0,4.0
# From MPC 65056
C/2008 W1 (STEREO),p,11/19.97/2008,142.75,84.72,0.0051,6.05,2000,9.0,4.0
# From MPC 66204
P/2008 WZ96 (LINEAR),e,7.1145,56.5241,341.8243,3.491666,0.1510619,0.47069514,309.6091,09/27.0/2020,2000,g 13.5,4.0
# From MPC 65057
C/2008 X3 (LINEAR),e,66.3259,337.9889,140.8068,43.39209,0.0034482,0.95576144,15.0829,09/27.0/2020,2000,g 13.0,4.0
# From MPC 75710
P/2008 Y3 (McNaught),e,38.7618,262.7871,238.2882,8.045642,0.0431880,0.44556509,185.3594,09/27.0/2020,2000,g  8.5,4.0
# From MPC 65647
C/2008 Y16 (STEREO),p,01/01.74/2009,143.48,94.24,0.0051,16.89,2000,9.0,4.0
# From MPC 65647
C/2008 Y17 (STEREO),p,01/01.99/2009,145.28,73.77,0.0053,354.27,2000,9.0,4.0
# From MPC 65057
C/2009 A1 (STEREO),p,01/11.785/2009,51.472,102.326,0.12713,340.014,2000,9.0,4.0
# From MPC 65647
C/2009 A6 (STEREO),p,01/03.31/2009,146.36,85.82,0.0052,7.57,2000,9.0,4.0
# From MPC 66700
C/2009 A8 (STEREO),p,01/05.46/2009,143.33,79.55,0.0055,0.87,2000,9.0,4.0
# From MPC 66700
C/2009 A9 (STEREO),p,01/11.60/2009,145.23,79.01,0.0047,4.53,2000,9.0,4.0
# From MPC 66700
C/2009 A10 (STEREO),p,01/11.66/2009,145.49,74.97,0.0050,359.65,2000,9.0,4.0
# From MPC 75710
P/2009 B1 (Boattini),e,22.2189,297.0919,128.9040,6.735400,0.0563844,0.63458917,241.2679,09/27.0/2020,2000,g 13.0,4.0
# From MPC 82315
C/2009 B2 (LINEAR),e,156.8275,18.8240,192.5479,40.93189,0.0037637,0.94302160,15.8763,09/27.0/2020,2000,g 12.5,4.0
# From MPC 66464
C/2009 B6 (STEREO),p,01/20.77/2009,143.22,80.15,0.0056,0.01,2000,9.0,4.0
# From MPC 66464
C/2009 B7 (STEREO),p,01/30.74/2009,145.64,86.84,0.0049,0.92,2000,9.0,4.0
# From MPC 66464
C/2009 C1 (STEREO),p,02/11.07/2009,145.77,89.46,0.0050,0.27,2000,9.0,4.0
# From MPC 66464
C/2009 C2 (STEREO),p,02/13.18/2009,144.28,84.79,0.0051,6.01,2000,9.0,4.0
# From MPC 72850
C/2009 E1 (Itagaki),e,127.0292,105.5994,48.6317,39.77995,0.0039283,0.98503059,0.0000,04/03.6287/2009,2000,g 11.5,4.0
# From MPC 82315
C/2009 F1 (Larson),e,171.3451,357.8982,219.5114,95.90444,0.0010494,0.98102695,0.0000,06/29.6849/2009,2000,g 15.0,4.0
# From MPC112389
C/2009 F2 (McNaught),e,59.3270,214.0513,336.5950,362.1755,0.0001430,0.98365936,0.0000,11/11.0176/2009,2000,g  6.0,4.0
# From MPC 95208
